CCSDS_OMM_VERS = 2.0
CREATION_DATE  = 
ORIGINATOR     = 

OBJECT_NAME    = STARLINK-36479
OBJECT_ID      = 2026-003U
CENTER_NAME    = EARTH
REF_FRAME      = TEME
TIME_SYSTEM    = UTC
MEAN_ELEMENT_THEORY = SGP/SGP4

EPOCH          = 2026-01-30T22:00:00.999936
MEAN_MOTION    = 15.57194335
ECCENTRICITY   = .00014275
INCLINATION    = 43.0006
RA_OF_ASC_NODE = 82.4214
ARG_OF_PERICENTER = 270.7479
MEAN_ANOMALY   = 88.0188

EPHEMERIS_TYPE = 0
CLASSIFICATION_TYPE = U
NORAD_CAT_ID   = 67352
ELEMENT_SET_NO = 999
REV_AT_EPOCH   = 460
BSTAR          = -.31318501E-1
MEAN_MOTION_DOT = -.2084193E-1
MEAN_MOTION_DDOT = 0

CCSDS_OMM_VERS = 2.0
CREATION_DATE  = 
ORIGINATOR     = 

OBJECT_NAME    = STARLINK-36474
OBJECT_ID      = 2026-003V
CENTER_NAME    = EARTH
REF_FRAME      = TEME
TIME_SYSTEM    = UTC
MEAN_ELEMENT_THEORY = SGP/SGP4

EPOCH          = 2026-01-30T22:00:00.999936
MEAN_MOTION    = 15.57196941
ECCENTRICITY   = .00013658
INCLINATION    = 43.0004
RA_OF_ASC_NODE = 82.4170
ARG_OF_PERICENTER = 266.7928
MEAN_ANOMALY   = 93.8883

EPHEMERIS_TYPE = 0
CLASSIFICATION_TYPE = U
NORAD_CAT_ID   = 67353
ELEMENT_SET_NO = 999
REV_AT_EPOCH   = 460
BSTAR          = -.31335028E-1
MEAN_MOTION_DOT = -.2085316E-1
MEAN_MOTION_DDOT = 0

CCSDS_OMM_VERS = 2.0
CREATION_DATE  = 
ORIGINATOR     = 

OBJECT_NAME    = STARLINK-36448
OBJECT_ID      = 2026-003W
CENTER_NAME    = EARTH
REF_FRAME      = TEME
TIME_SYSTEM    = UTC
MEAN_ELEMENT_THEORY = SGP/SGP4

EPOCH          = 2026-01-30T22:00:00.999936
MEAN_MOTION    = 15.57198495
ECCENTRICITY   = .0001476
INCLINATION    = 43.0001
RA_OF_ASC_NODE = 82.4020
ARG_OF_PERICENTER = 266.1275
MEAN_ANOMALY   = 100.3041

EPHEMERIS_TYPE = 0
CLASSIFICATION_TYPE = U
NORAD_CAT_ID   = 67354
ELEMENT_SET_NO = 999
REV_AT_EPOCH   = 460
BSTAR          = -.31360848E-1
MEAN_MOTION_DOT = -.208703E-1
MEAN_MOTION_DDOT = 0

CCSDS_OMM_VERS = 2.0
CREATION_DATE  = 
ORIGINATOR     = 

OBJECT_NAME    = STARLINK-36477
OBJECT_ID      = 2026-003X
CENTER_NAME    = EARTH
REF_FRAME      = TEME
TIME_SYSTEM    = UTC
MEAN_ELEMENT_THEORY = SGP/SGP4

EPOCH          = 2026-01-30T22:00:00.999936
MEAN_MOTION    = 15.57197857
ECCENTRICITY   = .0001319
INCLINATION    = 43.0001
RA_OF_ASC_NODE = 82.4118
ARG_OF_PERICENTER = 270.6952
MEAN_ANOMALY   = 91.9025

EPHEMERIS_TYPE = 0
CLASSIFICATION_TYPE = U
NORAD_CAT_ID   = 67355
ELEMENT_SET_NO = 999
REV_AT_EPOCH   = 459
BSTAR          = -.31370098E-1
MEAN_MOTION_DOT = -.2087429E-1
MEAN_MOTION_DDOT = 0

CCSDS_OMM_VERS = 2.0
CREATION_DATE  = 
ORIGINATOR     = 

OBJECT_NAME    = STARLINK-36429
OBJECT_ID      = 2026-003Y
CENTER_NAME    = EARTH
REF_FRAME      = TEME
TIME_SYSTEM    = UTC
MEAN_ELEMENT_THEORY = SGP/SGP4

EPOCH          = 2026-01-30T22:00:00.999936
MEAN_MOTION    = 15.57198134
ECCENTRICITY   = .00013249
INCLINATION    = 43.0003
RA_OF_ASC_NODE = 82.4071
ARG_OF_PERICENTER = 271.6064
MEAN_ANOMALY   = 92.9081

EPHEMERIS_TYPE = 0
CLASSIFICATION_TYPE = U
NORAD_CAT_ID   = 67356
ELEMENT_SET_NO = 999
REV_AT_EPOCH   = 459
BSTAR          = -.31376876E-1
MEAN_MOTION_DOT = -.2087854E-1
MEAN_MOTION_DDOT = 0

CCSDS_OMM_VERS = 2.0
CREATION_DATE  = 
ORIGINATOR     = 

OBJECT_NAME    = STARLINK-36456
OBJECT_ID      = 2026-003Z
CENTER_NAME    = EARTH
REF_FRAME      = TEME
TIME_SYSTEM    = UTC
MEAN_ELEMENT_THEORY = SGP/SGP4

EPOCH          = 2026-01-30T22:00:00.999936
MEAN_MOTION    = 15.57196076
ECCENTRICITY   = .00012932
INCLINATION    = 43.0004
RA_OF_ASC_NODE = 82.3968
ARG_OF_PERICENTER = 270.3524
MEAN_ANOMALY   = 97.9975

EPHEMERIS_TYPE = 0
CLASSIFICATION_TYPE = U
NORAD_CAT_ID   = 67357
ELEMENT_SET_NO = 999
REV_AT_EPOCH   = 460
BSTAR          = -.31340055E-1
MEAN_MOTION_DOT = -.2085505E-1
MEAN_MOTION_DDOT = 0

CCSDS_OMM_VERS = 2.0
CREATION_DATE  = 
ORIGINATOR     = 

OBJECT_NAME    = STARLINK-36466
OBJECT_ID      = 2026-003AA
CENTER_NAME    = EARTH
REF_FRAME      = TEME
TIME_SYSTEM    = UTC
MEAN_ELEMENT_THEORY = SGP/SGP4

EPOCH          = 2026-01-30T22:00:00.999936
MEAN_MOTION    = 15.57198630
ECCENTRICITY   = .00014007
INCLINATION    = 43.0000
RA_OF_ASC_NODE = 82.3921
ARG_OF_PERICENTER = 267.6485
MEAN_ANOMALY   = 102.6166

EPHEMERIS_TYPE = 0
CLASSIFICATION_TYPE = U
NORAD_CAT_ID   = 67358
ELEMENT_SET_NO = 999
REV_AT_EPOCH   = 460
BSTAR          = -.31364019E-1
MEAN_MOTION_DOT = -.2087177E-1
MEAN_MOTION_DDOT = 0

CCSDS_OMM_VERS = 2.0
CREATION_DATE  = 
ORIGINATOR     = 

OBJECT_NAME    = STARLINK-36499
OBJECT_ID      = 2026-003AB
CENTER_NAME    = EARTH
REF_FRAME      = TEME
TIME_SYSTEM    = UTC
MEAN_ELEMENT_THEORY = SGP/SGP4

EPOCH          = 2026-01-30T22:00:00.999936
MEAN_MOTION    = 15.57192686
ECCENTRICITY   = .00014076
INCLINATION    = 42.9998
RA_OF_ASC_NODE = 82.3865
ARG_OF_PERICENTER = 274.1852
MEAN_ANOMALY   = 97.9980

EPHEMERIS_TYPE = 0
CLASSIFICATION_TYPE = U
NORAD_CAT_ID   = 67359
ELEMENT_SET_NO = 999
REV_AT_EPOCH   = 460
BSTAR          = -.31195567E-1
MEAN_MOTION_DOT = -.2076772E-1
MEAN_MOTION_DDOT = 0

CCSDS_OMM_VERS = 2.0
CREATION_DATE  = 
ORIGINATOR     = 

OBJECT_NAME    = STARLINK-36469
OBJECT_ID      = 2026-003AC
CENTER_NAME    = EARTH
REF_FRAME      = TEME
TIME_SYSTEM    = UTC
MEAN_ELEMENT_THEORY = SGP/SGP4

EPOCH          = 2026-01-30T22:00:00.999936
MEAN_MOTION    = 15.57194766
ECCENTRICITY   = .00013751
INCLINATION    = 42.9999
RA_OF_ASC_NODE = 82.3816
ARG_OF_PERICENTER = 273.5409
MEAN_ANOMALY   = 100.5597

EPHEMERIS_TYPE = 0
CLASSIFICATION_TYPE = U
NORAD_CAT_ID   = 67360
ELEMENT_SET_NO = 999
REV_AT_EPOCH   = 460
BSTAR          = -.31296035E-1
MEAN_MOTION_DOT = -.2082857E-1
MEAN_MOTION_DDOT = 0

CCSDS_OMM_VERS = 2.0
CREATION_DATE  = 
ORIGINATOR     = 

OBJECT_NAME    = STARLINK-35306
OBJECT_ID      = 2026-003AD
CENTER_NAME    = EARTH
REF_FRAME      = TEME
TIME_SYSTEM    = UTC
MEAN_ELEMENT_THEORY = SGP/SGP4

EPOCH          = 2026-01-30T22:00:00.999936
MEAN_MOTION    = 15.57197005
ECCENTRICITY   = .0001628
INCLINATION    = 43.0004
RA_OF_ASC_NODE = 82.3761
ARG_OF_PERICENTER = 272.3014
MEAN_ANOMALY   = 103.7148

EPHEMERIS_TYPE = 0
CLASSIFICATION_TYPE = U
NORAD_CAT_ID   = 67361
ELEMENT_SET_NO = 999
REV_AT_EPOCH   = 454
BSTAR          = -.31315495E-1
MEAN_MOTION_DOT = -.2084339E-1
MEAN_MOTION_DDOT = 0

CCSDS_OMM_VERS = 2.0
CREATION_DATE  = 
ORIGINATOR     = 

OBJECT_NAME    = STARLINK-36428
OBJECT_ID      = 2026-003AE
CENTER_NAME    = EARTH
REF_FRAME      = TEME
TIME_SYSTEM    = UTC
MEAN_ELEMENT_THEORY = SGP/SGP4

EPOCH          = 2026-01-30T22:00:00.999936
MEAN_MOTION    = 15.57194421
ECCENTRICITY   = .00013435
INCLINATION    = 43.0006
RA_OF_ASC_NODE = 82.3709
ARG_OF_PERICENTER = 274.7208
MEAN_ANOMALY   = 103.2130

EPHEMERIS_TYPE = 0
CLASSIFICATION_TYPE = U
NORAD_CAT_ID   = 67362
ELEMENT_SET_NO = 999
REV_AT_EPOCH   = 460
BSTAR          = -.31267911E-1
MEAN_MOTION_DOT = -.2081143E-1
MEAN_MOTION_DDOT = 0

CCSDS_OMM_VERS = 2.0
CREATION_DATE  = 
ORIGINATOR     = 

OBJECT_NAME    = TWILIGHT A
OBJECT_ID      = 2026-004A
CENTER_NAME    = EARTH
REF_FRAME      = TEME
TIME_SYSTEM    = UTC
MEAN_ELEMENT_THEORY = SGP/SGP4

EPOCH          = 2026-01-30T22:15:16.039008
MEAN_MOTION    = 14.86976851
ECCENTRICITY   = .0007705
INCLINATION    = 97.7985
RA_OF_ASC_NODE = 31.7449
ARG_OF_PERICENTER = 224.8441
MEAN_ANOMALY   = 135.2153

EPHEMERIS_TYPE = 0
CLASSIFICATION_TYPE = U
NORAD_CAT_ID   = 67363
ELEMENT_SET_NO = 999
REV_AT_EPOCH   = 287
BSTAR          = .57429572E-3
MEAN_MOTION_DOT = .509E-4
MEAN_MOTION_DDOT = 0

