STARLINK-36479          
1 67352U 26003U   26030.91667824 -.02084193  00000+0 -31319-1 0  9994
2 67352  43.0006  82.4214 0001427 270.7479  88.0188 15.57194335  4605
STARLINK-36474          
1 67353U 26003V   26030.91667824 -.02085316  00000+0 -31335-1 0  9991
2 67353  43.0004  82.4170 0001365 266.7928  93.8883 15.57196941  4601
STARLINK-36448          
1 67354U 26003W   26030.91667824 -.02087030  00000+0 -31361-1 0  9996
2 67354  43.0001  82.4020 0001476 266.1275 100.3041 15.57198495  4601
STARLINK-36477          
1 67355U 26003X   26030.91667824 -.02087429  00000+0 -31370-1 0  9999
2 67355  43.0001  82.4118 0001319 270.6952  91.9025 15.57197857  4594
STARLINK-36429          
1 67356U 26003Y   26030.91667824 -.02087854  00000+0 -31377-1 0  9999
2 67356  43.0003  82.4071 0001324 271.6064  92.9081 15.57198134  4598
STARLINK-36456          
1 67357U 26003Z   26030.91667824 -.02085505  00000+0 -31340-1 0  9991
2 67357  43.0004  82.3968 0001293 270.3524  97.9975 15.57196076  4608
STARLINK-36466          
1 67358U 26003AA  26030.91667824 -.02087177  00000+0 -31364-1 0  9995
2 67358  43.0000  82.3921 0001400 267.6485 102.6166 15.57198630  4603
STARLINK-36499          
1 67359U 26003AB  26030.91667824 -.02076772  00000+0 -31196-1 0  9998
2 67359  42.9998  82.3865 0001407 274.1852  97.9980 15.57192686  4608
STARLINK-36469          
1 67360U 26003AC  26030.91667824 -.02082857  00000+0 -31296-1 0  9992
2 67360  42.9999  82.3816 0001375 273.5409 100.5597 15.57194766  4608
STARLINK-35306          
1 67361U 26003AD  26030.91667824 -.02084339  00000+0 -31315-1 0  9992
2 67361  43.0004  82.3761 0001628 272.3014 103.7148 15.57197005  4546
STARLINK-36428          
1 67362U 26003AE  26030.91667824 -.02081143  00000+0 -31268-1 0  9990
2 67362  43.0006  82.3709 0001343 274.7208 103.2130 15.57194421  4608
TWILIGHT A              
1 67363U 26004A   26030.92726897  .00005090  00000+0  57430-3 0  9993
2 67363  97.7985  31.7449 0007705 224.8441 135.2153 14.86976851  2876
